STARLINK-33711          
1 63404U 25065F   26158.71792367  .00025483  00000+0  93273-3 0  9997
2 63404  42.9984 318.2164 0000613 220.7788 139.3018 15.27566429 66615
STARLINK-33708          
1 63405U 25065G   26159.13593232  .00024767  00000+0  90612-3 0  9993
2 63405  43.0022 316.1849 0000872 267.0428  93.0324 15.27594698 66671
STARLINK-33690          
1 63406U 25065H   26158.71326156  .00016692  00000+0  61463-3 0  9996
2 63406  43.0013 314.7231 0004320 108.9702 251.1618 15.27581060 66651
STARLINK-33694          
1 63407U 25065J   26159.12823724  .00025697  00000+0  93959-3 0  9996
2 63407  43.0010 316.1267 0002026 265.5940  94.4680 15.27595857 66677
STARLINK-33692          
1 63408U 25065K   26159.17142969  .00019655  00000+0  72191-3 0  9999
2 63408  43.0058 319.9115 0002521 271.2617  88.7946 15.27576593 66631
STARLINK-33693          
1 63409U 25065L   26159.14621751  .00015291  00000+0  56412-3 0  9998
2 63409  43.0105 316.2641 0001521 260.1882  99.8798 15.27575321 66679
STARLINK-33677          
1 63410U 25065M   26159.13850802  .00017145  00000+0  63127-3 0  9991
2 63410  43.0020 316.2022 0001618 259.1253 100.9416 15.27570575 66674
STARLINK-33647          
1 63411U 25065N   26159.18637584  .00020770  00000+0  76234-3 0  9998
2 63411  43.0029 323.4918 0001531 276.1374  83.9303 15.27572919 66595
STARLINK-33645          
1 63412U 25065P   26159.13029301  .00013683  00000+0  50543-3 0  9996
2 63412  43.0017 319.5356 0002481 279.0382  81.0189 15.27604860 66638
STARLINK-33670          
1 63413U 25065Q   26159.13464581  .00014109  00000+0  52097-3 0  9990
2 63413  42.9986 316.1406 0001777 274.6090  85.4559 15.27597228 66677
STARLINK-33644          
1 63414U 25065R   26159.31167976  .00021082  00000+0  77295-3 0  9994
2 63414  43.0013 315.7367 0002490 290.5119  69.5465 15.27599358 66691
STARLINK-33664          
1 63415U 25065S   26159.14235901  .00019831  00000+0  72847-3 0  9997
2 63415  43.0058 316.1933 0001499 285.5562  74.5124 15.27569888 66670
STARLINK-33649          
1 63416U 25065T   26159.12950224  .00029501  00000+0  10772-2 0  9991
2 63416  43.0015 316.0799 0002136 278.1689  81.8921 15.27581324 66675
STARLINK-33535          
1 63417U 25065U   26159.14106492  .00021117  00000+0  77468-3 0  9995
2 63417  43.0006 316.1571 0001729 257.7583 102.3075 15.27580404 66675
STARLINK-33703          
1 63418U 25065V   26159.16162589  .00022908  00000+0  83944-3 0  9992
2 63418  43.0030 316.3268 0002469 255.9015 104.1563 15.27577097 66676
STARLINK-33709          
1 63419U 25065W   26159.16545992  .00013699  00000+0  50607-3 0  9993
2 63419  43.0038 316.3597 0006977 268.1405  91.8648 15.27585728 66673
STARLINK-33698          
1 63420U 25065X   26159.12179194  .00027395  00000+0  10012-2 0  9991
2 63420  42.9969 316.0150 0001768 266.5776  93.4873 15.27582523 66672
STARLINK-33606          
1 63421U 25065Y   26159.13978351  .00020506  00000+0  75273-3 0  9993
2 63421  43.0028 316.1577 0001741 263.6369  96.4284 15.27574223 66679
STARLINK-33686          
1 63422U 25065Z   26159.15005118  .00029985  00000+0  10942-2 0  9999
2 63422  43.0032 316.2334 0003050 258.9359 101.1150 15.27592429 66672
STARLINK-33675          
1 63423U 25065AA  26158.72562249  .00028122  00000+0  10275-2 0  9996
2 63423  43.0131 318.2155 0001257 144.8002 215.2933 15.27583448 66612
STARLINK-33655          
1 63424U 25065AB  26158.71548805  .00022519  00000+0  82539-3 0  9995
2 63424  43.0023 318.9891 0002116 277.8100  82.2511 15.27577919 66607
STARLINK-33608          
1 63425U 25065AC  26159.14749401  .00019264  00000+0  70796-3 0  9994
2 63425  43.0029 316.2030 0001404 284.3362  75.7334 15.27570226 66673
STARLINK-33615          
1 63426U 25065AD  26158.71162805  .00000958  00000+0  44347-4 0  9998
2 63426  43.0016 318.9639 0001554 254.8748 105.1932 15.27581588 66608
STARLINK-33682          
1 63433U 25069A   26159.25004630  .02602096  00000+0  50884-1 0  9994
2 63433  53.1595  78.2067 0001399  81.2621 184.1670 15.43124207  5901
STARLINK-33710          
1 63434U 25069B   26159.25004630  .00076988  00000+0  13808-2 0  9994
2 63434  53.1589  77.9172 0001122  79.0261 333.0018 15.49266192  5904
STARLINK-33733          
1 63435U 25069C   26159.25004630  .00077220  00000+0  13847-2 0  9998
2 63435  53.1590  77.9403 0001200  76.7642 322.9329 15.49269826  5907
STARLINK-33638          
1 63436U 25069D   26159.04866799  .00045741  00000+0  82517-3 0  9992
2 63436  53.1595  78.8902 0001028  85.0870 275.0256 15.49325942 67290
STARLINK-33726          
1 63437U 25069E   26159.09864267  .00029741  00000+0  54026-3 0  9992
2 63437  53.1600  78.4937 0001059  59.0256 301.0857 15.49335328 67257
STARLINK-33681          
1 63438U 25069F   26159.25004630  .00078294  00000+0  14039-2 0  9997
2 63438  53.1590  77.8000 0001321  82.2714  28.0077 15.49264891  5796
STARLINK-33730          
1 63439U 25069G   26159.05014072  .00026102  00000+0  75642-3 0  9996
2 63439  53.1595  78.9040 0001002  64.7227 295.3880 15.35406465 67292
