OBJECT_NAME,OBJECT_ID,EPOCH,MEAN_MOTION,ECCENTRICITY,INCLINATION,RA_OF_ASC_NODE,ARG_OF_PERICENTER,MEAN_ANOMALY,EPHEMERIS_TYPE,CLASSIFICATION_TYPE,NORAD_CAT_ID,ELEMENT_SET_NO,REV_AT_EPOCH,BSTAR,MEAN_MOTION_DOT,MEAN_MOTION_DDOT
STARLINK-33711,2025-065F,2026-06-07T17:13:48.605088,15.27566429,.00006136,42.9984,318.2164,220.7788,139.3018,0,U,63404,999,6661,.93272667E-3,.25483E-3,0
STARLINK-33708,2025-065G,2026-06-08T03:15:44.552448,15.27594698,.00008729,43.0022,316.1849,267.0428,93.0324,0,U,63405,999,6667,.906125E-3,.24767E-3,0
STARLINK-33690,2025-065H,2026-06-07T17:07:05.798784,15.27581060,.00043206,43.0013,314.7231,108.9702,251.1618,0,U,63406,999,6665,.61462583E-3,.16692E-3,0
STARLINK-33694,2025-065J,2026-06-08T03:04:39.697536,15.27595857,.00020261,43.0010,316.1267,265.5940,94.4680,0,U,63407,999,6667,.93959445E-3,.25697E-3,0
STARLINK-33692,2025-065K,2026-06-08T04:06:51.525216,15.27576593,.00025219,43.0058,319.9115,271.2617,88.7946,0,U,63408,999,6663,.72191147E-3,.19655E-3,0
STARLINK-33693,2025-065L,2026-06-08T03:30:33.192864,15.27575321,.00015216,43.0105,316.2641,260.1882,99.8798,0,U,63409,999,6667,.56411658E-3,.15291E-3,0
STARLINK-33677,2025-065M,2026-06-08T03:19:27.092928,15.27570575,.00016184,43.0020,316.2022,259.1253,100.9416,0,U,63410,999,6667,.63127492E-3,.17145E-3,0
STARLINK-33647,2025-065N,2026-06-08T04:28:22.872576,15.27572919,.00015315,43.0029,323.4918,276.1374,83.9303,0,U,63411,999,6659,.76233518E-3,.2077E-3,0
STARLINK-33645,2025-065P,2026-06-08T03:07:37.316064,15.27604860,.00024815,43.0017,319.5356,279.0382,81.0189,0,U,63412,999,6663,.50542582E-3,.13683E-3,0
STARLINK-33670,2025-065Q,2026-06-08T03:13:53.397984,15.27597228,.00017775,42.9986,316.1406,274.6090,85.4559,0,U,63413,999,6667,.52096742E-3,.14109E-3,0
STARLINK-33644,2025-065R,2026-06-08T07:28:49.131264,15.27599358,.00024907,43.0013,315.7367,290.5119,69.5465,0,U,63414,999,6669,.77294596E-3,.21082E-3,0
STARLINK-33664,2025-065S,2026-06-08T03:24:59.818464,15.27569888,.00014999,43.0058,316.1933,285.5562,74.5124,0,U,63415,999,6667,.72847047E-3,.19831E-3,0
STARLINK-33649,2025-065T,2026-06-08T03:06:28.993536,15.27581324,.00021363,43.0015,316.0799,278.1689,81.8921,0,U,63416,999,6667,.10772055E-2,.29501E-3,0
STARLINK-33535,2025-065U,2026-06-08T03:23:08.009088,15.27580404,.00017295,43.0006,316.1571,257.7583,102.3075,0,U,63417,999,6667,.7746764E-3,.21117E-3,0
STARLINK-33703,2025-065V,2026-06-08T03:52:44.476896,15.27577097,.00024697,43.0030,316.3268,255.9015,104.1563,0,U,63418,999,6667,.8394412E-3,.22908E-3,0
STARLINK-33709,2025-065W,2026-06-08T03:58:15.737088,15.27585728,.00069778,43.0038,316.3597,268.1405,91.8648,0,U,63419,999,6667,.50607489E-3,.13699E-3,0
STARLINK-33698,2025-065X,2026-06-08T02:55:22.823616,15.27582523,.00017689,42.9969,316.0150,266.5776,93.4873,0,U,63420,999,6667,.10012438E-2,.27395E-3,0
STARLINK-33606,2025-065Y,2026-06-08T03:21:17.295264,15.27574223,.00017412,43.0028,316.1577,263.6369,96.4284,0,U,63421,999,6667,.75273442E-3,.20506E-3,0
STARLINK-33686,2025-065Z,2026-06-08T03:36:04.421952,15.27592429,.00030507,43.0032,316.2334,258.9359,101.1150,0,U,63422,999,6667,.1094226E-2,.29985E-3,0
STARLINK-33675,2025-065AA,2026-06-07T17:24:53.783136,15.27583448,.00012577,43.0131,318.2155,144.8002,215.2933,0,U,63423,999,6661,.1027487E-2,.28122E-3,0
STARLINK-33655,2025-065AB,2026-06-07T17:10:18.167520,15.27577919,.00021169,43.0023,318.9891,277.8100,82.2511,0,U,63424,999,6660,.82538986E-3,.22519E-3,0
STARLINK-33608,2025-065AC,2026-06-08T03:32:23.482464,15.27570226,.00014046,43.0029,316.2030,284.3362,75.7334,0,U,63425,999,6667,.70795533E-3,.19264E-3,0
STARLINK-33615,2025-065AD,2026-06-07T17:04:44.663520,15.27581588,.00015548,43.0016,318.9639,254.8748,105.1932,0,U,63426,999,6660,.44346931E-4,.958E-5,0
STARLINK-33682,2025-069A,2026-06-08T06:00:04.000320,15.43124207,.00013996,53.1595,78.2067,81.2621,184.1670,0,U,63433,999,590,.50884109E-1,.2602096E-1,0
STARLINK-33710,2025-069B,2026-06-08T06:00:04.000320,15.49266192,.00011227,53.1589,77.9172,79.0261,333.0018,0,U,63434,999,590,.13807671E-2,.76988E-3,0
STARLINK-33733,2025-069C,2026-06-08T06:00:04.000320,15.49269826,.00012007,53.1590,77.9403,76.7642,322.9329,0,U,63435,999,590,.13846753E-2,.7722E-3,0
STARLINK-33638,2025-069D,2026-06-08T01:10:04.914336,15.49325942,.00010284,53.1595,78.8902,85.0870,275.0256,0,U,63436,999,6729,.82517308E-3,.45741E-3,0
STARLINK-33726,2025-069E,2026-06-08T02:22:02.726688,15.49335328,.00010593,53.1600,78.4937,59.0256,301.0857,0,U,63437,999,6725,.54025829E-3,.29741E-3,0
STARLINK-33681,2025-069F,2026-06-08T06:00:04.000320,15.49264891,.00013213,53.1590,77.8000,82.2714,28.0077,0,U,63438,999,579,.14038696E-2,.78294E-3,0
STARLINK-33730,2025-069G,2026-06-08T01:12:12.158208,15.35406465,.00010025,53.1595,78.9040,64.7227,295.3880,0,U,63439,999,6729,.7564224E-3,.26102E-3,0
